SL-16 R/B               
1 24298U 96051B   26171.43070052  .00000120  00000+0  91679-4 0  9992
2 24298  70.7645 317.7839 0015755 332.1213  27.9061 14.12446944536156
ORBVIEW 2 (SEASTAR)     
1 24883U 97037A   26171.43523532  .00000161  00000+0  72046-4 0  9995
2 24883  98.8691 338.5442 0003256 109.5614 250.5923 14.35554590523219
SL-16 R/B               
1 25400U 98043G   26171.45007507  .00000036  00000+0  33892-4 0  9997
2 25400  98.8365 125.6374 0010943  77.8832 282.3573 14.26069066453633
SL-16 R/B               
1 25407U 98045B   26171.41436789 -.00000124  00000+0 -38436-4 0  9999
2 25407  71.0116 325.5420 0009233 237.6099 122.4132 14.16202312441646
ISS (ZARYA)             
1 25544U 98067A   26171.41461525  .00008813  00000+0  16600-3 0  9990
2 25544  51.6327 284.1189 0004557 208.5194 151.5545 15.49333088572250
CZ-4B R/B               
1 25732U 99025C   26171.37344594  .00000027  00000+0  33597-4 0  9999
2 25732  98.6481 213.1317 0037971  50.7196 320.3503 14.18283917402725
OKEAN-O                 
1 25860U 99039A   26171.11862727  .00000442  00000+0  64557-4 0  9992
2 25860  97.9314 229.8828 0001533  71.4936 288.6442 14.80470388449540
SL-16 R/B               
1 25861U 99039B   26171.40777244  .00000338  00000+0  49532-4 0  9994
2 25861  97.9836 230.2616 0013403 285.4398  74.5334 14.81847683452070
DELTA 2 R/B             
1 25876U 99041E   26171.43135163  .00000318  00000+0  89362-4 0  9997
2 25876  51.7649 250.8374 0500852 291.6071  63.2220 14.12020124377545
HELIOS 1B               
1 25977U 99064A   26171.33913985  .00001002  00000+0  11549-3 0  9991
2 25977  98.1612  76.5701 0002549  86.8565 273.2943 14.88013500700527
TERRA                   
1 25994U 99068A   26171.44083515  .00000275  00000+0  65041-4 0  9991
2 25994  97.9454 220.8581 0001842 178.7606 238.1366 14.61105267410080
SL-16 R/B               
1 26070U 00006B   26171.38577962  .00000147  00000+0  98902-4 0  9998
2 26070  71.0017 241.8998 0015721  18.1288 342.0392 14.15834705363090
TITAN 4B R/B            
1 26474U 00047B   26171.37175720  .00002473  00000+0  15570-3 0  9999
2 26474  67.9884 111.6092 0045860 283.7197  75.8849 15.10212746408414
ENVISAT                 
1 27386U 02009A   26171.45747044  .00000056  00000+0  31949-4 0  9999
2 27386  98.3835 122.7030 0001397  89.1725  23.4510 14.39065404273958
IDEFIX & ARIANE 42P R/B 
1 27422U 02021B   26171.34575801  .00000157  00000+0  76395-4 0  9998
2 27422  98.5942 108.7947 0010639 243.5673 116.4419 14.31083354258701
AQUA                    
1 27424U 02022A   26171.42470413  .00000562  00000+0  12157-3 0  9998
2 27424  98.4278 140.7722 0000982  55.9702  96.4678 14.62162126283744
CZ-4B R/B               
1 27432U 02024C   26171.41348574  .00000020  00000+0  33026-4 0  9998
2 27432  98.8698 224.2127 0051224  91.2630 279.9070 14.14564757243763
MIDORI II (ADEOS-II)    
1 27597U 02056A   26171.42813808  .00000187  00000+0  91270-4 0  9992
2 27597  98.7878 130.7155 0002170  72.4390 287.7029 14.29351082224970
H-2A R/B                
1 27601U 02056E   26171.37184816  .00000147  00000+0  66358-4 0  9997
2 27601  98.3312 127.9303 0069329 214.9503 259.8197 14.33823212228824
CZ-4B R/B               
1 28059U 03049C   26171.39436604  .00000203  00000+0  58421-4 0  9990
2 28059  98.6896 170.3685 0046888 278.5075  81.0809 14.55101887201537
CZ-2C R/B               
1 28222U 04012C   26171.20162357  .00092955  00000+0  50848-3 0  9993
2 28222  97.7079 247.2165 0009801 270.9770  89.0373 15.79516887220375
SL-16 R/B               
1 28353U 04021B   26171.27261573 -.00000171  00000+0 -64309-4 0  9994
2 28353  71.0005  17.2138 0007144 250.8793 109.1556 14.14607323137344
CZ-4B R/B               
1 28415U 04035C   26171.33593882  .00006049  00000+0  20403-3 0  9990
2 28415  97.3363 204.3739 0029557 326.3622  33.5742 15.30663439195608
CZ-2C R/B               
1 28480U 04046B   26171.34677605  .00000046  00000+0  32382-4 0  9992
2 28480  98.1943  79.9302 0138645 210.8608 148.4371 14.27027088123148
ARIANE 5 R/B            
1 28499U 04049H   26171.43087523  .00000409  00000+0  51609-4 0  9995
2 28499  98.2723 343.8089 0084257  18.9811 341.4511 14.85452241161041
CZ-2D R/B               
1 28738U 05024B   26171.02428521  .00051696  00000+0  43299-3 0  9996
2 28738  97.3481 190.5942 0002904  47.7196 312.4312 15.69825717155784
ALOS (DAICHI)           
1 28931U 06002A   26171.42573416  .00000762  00000+0  13518-3 0  9995
2 28931  98.1324 126.9830 0001325  56.4754 303.6579 14.70055733 88579
H-2A R/B                
1 28932U 06002B   26171.41615500  .00005436  00000+0  26227-3 0  9990
2 28932  98.2572 327.5370 0049623 251.0264 108.5587 15.18095086110010
RESURS-DK 1             
1 29228U 06021A   26171.40661411  .00001448  00000+0  87373-4 0  9990
2 29228  69.9331 331.2197 0006868 290.2744  69.7684 15.13228164103061
CZ-4B R/B               
1 29507U 06046C   26171.15364409  .00002962  00000+0  14825-3 0  9999
2 29507  97.5448 215.7517 0030926 271.9092  87.8599 15.17800930 75585
CZ-2C R/B               
1 31114U 07010B   26171.30055291  .00000050  00000+0  41952-4 0  9999
2 31114  98.4102 279.4991 0058827 357.0679   3.0145 14.20276704994282
