OBJECT_NAME,OBJECT_ID,EPOCH,MEAN_MOTION,ECCENTRICITY,INCLINATION,RA_OF_ASC_NODE,ARG_OF_PERICENTER,MEAN_ANOMALY,EPHEMERIS_TYPE,CLASSIFICATION_TYPE,NORAD_CAT_ID,ELEMENT_SET_NO,REV_AT_EPOCH,BSTAR,MEAN_MOTION_DOT,MEAN_MOTION_DDOT
SL-16 R/B,1996-051B,2026-06-20T10:20:12.524928,14.12446944,.0015755,70.7645,317.7839,332.1213,27.9061,0,U,24298,999,53615,.91679E-4,.12E-5,0
ORBVIEW 2 (SEASTAR),1997-037A,2026-06-20T10:26:44.331648,14.35554590,.0003256,98.8691,338.5442,109.5614,250.5923,0,U,24883,999,52321,.72046E-4,.161E-5,0
SL-16 R/B,1998-043G,2026-06-20T10:48:06.486048,14.26069066,.0010943,98.8365,125.6374,77.8832,282.3573,0,U,25400,999,45363,.33892E-4,.36E-6,0
SL-16 R/B,1998-045B,2026-06-20T09:56:41.385696,14.16202312,.0009233,71.0116,325.5420,237.6099,122.4132,0,U,25407,999,44164,-.38436E-4,-.124E-5,0
ISS (ZARYA),1998-067A,2026-06-20T09:57:02.757600,15.49333088,.0004557,51.6327,284.1189,208.5194,151.5545,0,U,25544,999,57225,.166E-3,.8813E-4,0
CZ-4B R/B,1999-025C,2026-06-20T08:57:45.729216,14.18283917,.0037971,98.6481,213.1317,50.7196,320.3503,0,U,25732,999,40272,.33597E-4,.27E-6,0
OKEAN-O,1999-039A,2026-06-20T02:50:49.396128,14.80470388,.00015334,97.9314,229.8828,71.4936,288.6442,0,U,25860,999,44954,.64556824E-4,.442E-5,0
SL-16 R/B,1999-039B,2026-06-20T09:47:11.538816,14.81847683,.0013403,97.9836,230.2616,285.4398,74.5334,0,U,25861,999,45207,.49532E-4,.338E-5,0
DELTA 2 R/B,1999-041E,2026-06-20T10:21:08.780832,14.12020124,.0500852,51.7649,250.8374,291.6071,63.2220,0,U,25876,999,37754,.89362E-4,.318E-5,0
HELIOS 1B,1999-064A,2026-06-20T08:08:21.683040,14.88013500,.0002549,98.1612,76.5701,86.8565,273.2943,0,U,25977,999,70052,.11549E-3,.1002E-4,0
TERRA,1999-068A,2026-06-20T10:34:48.156960,14.61105267,.0001842,97.9454,220.8581,178.7606,238.1366,0,U,25994,999,41008,.65041E-4,.275E-5,0
SL-16 R/B,2000-006B,2026-06-20T09:15:31.359168,14.15834705,.0015721,71.0017,241.8998,18.1288,342.0392,0,U,26070,999,36309,.98902E-4,.147E-5,0
TITAN 4B R/B,2000-047B,2026-06-20T08:55:19.822080,15.10212746,.004586,67.9884,111.6092,283.7197,75.8849,0,U,26474,999,40841,.1557E-3,.2473E-4,0
ENVISAT,2002-009A,2026-06-20T10:58:45.446016,14.39065404,.0001397,98.3835,122.7030,89.1725,23.4510,0,U,27386,999,27395,.31949E-4,.56E-6,0
IDEFIX & ARIANE 42P R/B,2002-021B,2026-06-20T08:17:53.492064,14.31083354,.0010639,98.5942,108.7947,243.5673,116.4419,0,U,27422,999,25870,.76395E-4,.157E-5,0
AQUA,2002-022A,2026-06-20T10:11:34.436832,14.62162126,.0000982,98.4278,140.7722,55.9702,96.4678,0,U,27424,999,28374,.12157E-3,.562E-5,0
CZ-4B R/B,2002-024C,2026-06-20T09:55:25.167936,14.14564757,.0051224,98.8698,224.2127,91.2630,279.9070,0,U,27432,999,24376,.33026E-4,.2E-6,0
MIDORI II (ADEOS-II),2002-056A,2026-06-20T10:16:31.130112,14.29351082,.000217,98.7878,130.7155,72.4390,287.7029,0,U,27597,999,22497,.9127E-4,.187E-5,0
H-2A R/B,2002-056E,2026-06-20T08:55:27.681024,14.33823212,.0069329,98.3312,127.9303,214.9503,259.8197,0,U,27601,999,22882,.66358E-4,.147E-5,0
CZ-4B R/B,2003-049C,2026-06-20T09:27:53.225856,14.55101887,.0046888,98.6896,170.3685,278.5075,81.0809,0,U,28059,999,20153,.58421E-4,.203E-5,0
CZ-2C R/B,2004-012C,2026-06-20T04:50:20.276448,15.79516887,.00098016,97.7079,247.2165,270.9770,89.0373,0,U,28222,999,22037,.50848341E-3,.92955E-3,0
SL-16 R/B,2004-021B,2026-06-20T06:32:33.999072,14.14607323,.0007144,71.0005,17.2138,250.8793,109.1556,0,U,28353,999,13734,-.64309E-4,-.171E-5,0
CZ-4B R/B,2004-035C,2026-06-20T08:03:45.114048,15.30663439,.0029557,97.3363,204.3739,326.3622,33.5742,0,U,28415,999,19560,.20403E-3,.6049E-4,0
CZ-2C R/B,2004-046B,2026-06-20T08:19:21.450720,14.27027088,.0138645,98.1943,79.9302,210.8608,148.4371,0,U,28480,999,12314,.32382E-4,.46E-6,0
ARIANE 5 R/B,2004-049H,2026-06-20T10:20:27.619872,14.85452241,.0084257,98.2723,343.8089,18.9811,341.4511,0,U,28499,999,16104,.51609E-4,.409E-5,0
CZ-2D R/B,2005-024B,2026-06-20T00:34:58.242144,15.69825717,.00029046,97.3481,190.5942,47.7196,312.4312,0,U,28738,999,15578,.43298778E-3,.51696E-3,0
ALOS (DAICHI),2006-002A,2026-06-20T10:13:03.431424,14.70055733,.0001325,98.1324,126.9830,56.4754,303.6579,0,U,28931,999,8857,.13518E-3,.762E-5,0
H-2A R/B,2006-002B,2026-06-20T09:59:15.792000,15.18095086,.0049623,98.2572,327.5370,251.0264,108.5587,0,U,28932,999,11001,.26227E-3,.5436E-4,0
RESURS-DK 1,2006-021A,2026-06-20T09:45:31.459104,15.13228164,.0006868,69.9331,331.2197,290.2744,69.7684,0,U,29228,999,10306,.87373E-4,.1448E-4,0
CZ-4B R/B,2006-046C,2026-06-20T03:41:14.849376,15.17800930,.00309263,97.5448,215.7517,271.9092,87.8599,0,U,29507,999,7558,.14824626E-3,.2962E-4,0
CZ-2C R/B,2007-010B,2026-06-20T07:12:47.771424,14.20276704,.0058827,98.4102,279.4991,357.0679,3.0145,0,U,31114,999,99428,.41952E-4,.5E-6,0
